{
  "norad_id": 61008,
  "name": "STARLINK-32340",
  "history": [
    {
      "epoch": "2026-03-28T22:13:25.955040Z",
      "apogee_km": 476.03142490826303,
      "perigee_km": 474.3482478372507,
      "latitude_deg": -2.758233941011975e-05,
      "longitude_deg": 176.60729534136846,
      "height_km": 476.1210307260329,
      "semi_major_axis_km": 6853.326836372757,
      "eccentricity": 0.0001228,
      "inclination_deg": 53.16,
      "raan_deg": 336.3049,
      "arg_perigee_deg": 92.2509,
      "mean_anomaly_deg": 267.8632,
      "mean_motion_rev_day": 15.30208451
    }
  ]
}